STARLINK-3975           
1 52620U 22052Y   26068.87062468  .00001500  00000+0  11228-3 0  9991
2 52620  53.2156 283.3126 0001215  89.4731 270.6400 15.08853082210805
LEMUR-2-UNTITLED-SC     
1 63351U 25061A   26068.89211098  .00005783  00000+0  33296-3 0  9990
2 63351  97.5556  45.0864 0017373 245.6030 114.3388 15.12695529 52577
