[{"OBJECT_NAME":"STARLINK-3975","OBJECT_ID":"2022-052Y","EPOCH":"2026-03-09T20:53:41.973216","MEAN_MOTION":15.08853082,"ECCENTRICITY":0.00012146,"INCLINATION":53.2156,"RA_OF_ASC_NODE":283.3126,"ARG_OF_PERICENTER":89.4731,"MEAN_ANOMALY":270.64,"EPHEMERIS_TYPE":0,"CLASSIFICATION_TYPE":"U","NORAD_CAT_ID":52620,"ELEMENT_SET_NO":999,"REV_AT_EPOCH":21080,"BSTAR":0.00011227624,"MEAN_MOTION_DOT":1.5e-5,"MEAN_MOTION_DDOT":0},{"OBJECT_NAME":"LEMUR-2-UNTITLED-SC","OBJECT_ID":"2025-061A","EPOCH":"2026-03-09T21:24:38.388672","MEAN_MOTION":15.12695529,"ECCENTRICITY":0.00173727,"INCLINATION":97.5556,"RA_OF_ASC_NODE":45.0864,"ARG_OF_PERICENTER":245.603,"MEAN_ANOMALY":114.3388,"EPHEMERIS_TYPE":0,"CLASSIFICATION_TYPE":"U","NORAD_CAT_ID":63351,"ELEMENT_SET_NO":999,"REV_AT_EPOCH":5257,"BSTAR":0.00033295729,"MEAN_MOTION_DOT":5.783e-5,"MEAN_MOTION_DDOT":0}]
